GLOBALSTAR M068         
1 32266U 07048D   25262.56514388 -.00000102  00000+0  83462-5 0  9996
2 32266  51.9915  14.5588 0000908  26.2990 347.3323 12.62828335829483
GLOBALSTAR M079         
1 37188U 10054A   25262.58854333 -.00000113  00000+0 -53492-4 0  9996
2 37188  52.0028 212.4135 0000602  87.9252  83.6777 12.62266790688376
GLOBALSTAR M074         
1 37189U 10054B   25262.61510925 -.00000121  00000+0 -98902-4 0  9991
2 37189  52.0004 211.6413 0000356  66.2398 105.2430 12.62271333688981
GLOBALSTAR M076         
1 37190U 10054C   25262.64140972 -.00000113  00000+0 -54107-4 0  9997
2 37190  52.0019 211.7409 0000387 101.5095  69.3426 12.62265371688706
GLOBALSTAR M077         
1 37191U 10054D   25261.11398905 -.00000105  00000+0 -68518-5 0  9993
2 37191  52.0064 173.2575 0000611  67.5371  70.5425 12.62323380688888
GLOBALSTAR M075         
1 37192U 10054E   25262.41257285 -.00000087  00000+0  91711-4 0  9991
2 37192  51.9929 254.6423 0000305  82.1200  69.1152 12.62267803687749
GLOBALSTAR M073         
1 37193U 10054F   25262.49630752 -.00000101  00000+0  14694-4 0  9996
2 37193  52.0050 168.2786 0000682  84.0086  87.5417 12.62262596689744
GLOBALSTAR M083         
1 37739U 11033A   25262.63768275 -.00000077  00000+0  15111-3 0  9994
2 37739  51.9842 116.4490 0000934  84.0740 310.5141 12.62275799658783
GLOBALSTAR M088         
1 37740U 11033B   25262.60660434 -.00000106  00000+0 -12961-4 0  9996
2 37740  52.0239  22.3136 0000696  92.8654 279.9366 12.62267849654325
GLOBALSTAR M091         
1 37741U 11033C   25262.56070310 -.00000148  00000+0 -24490-3 0  9995
2 37741  52.0025 345.8192 0000694  94.6859  10.7852 12.62259544655100
GLOBALSTAR M085         
1 37742U 11033D   25262.55923591 -.00000076  00000+0  15627-3 0  9994
2 37742  52.0126 296.8820 0000603  90.7302  67.5274 12.62264839655613
GLOBALSTAR M081         
1 37743U 11033E   25262.58773310 -.00000068  00000+0  20214-3 0  9999
2 37743  51.9961 299.5408 0000544 112.3071  54.7230 12.62268350655767
GLOBALSTAR M089         
1 37744U 11033F   25262.46851229 -.00000089  00000+0  83363-4 0  9991
2 37744  51.9915 254.1112 0000094 102.4113  63.4269 12.62266856656593
GLOBALSTAR M084         
1 38040U 11080A   25262.60761987 -.00000084  00000+0  11004-3 0  9997
2 38040  51.9993 121.0246 0000498  91.2827 286.6238 12.62268948634599
GLOBALSTAR M080         
1 38041U 11080B   25262.37529095 -.00000078  00000+0  14605-3 0  9997
2 38041  52.0044 123.3572 0001097  55.7476 115.1444 12.62269087634687
GLOBALSTAR M082         
1 38042U 11080C   25262.51889733 -.00000091  00000+0  69740-4 0  9998
2 38042  52.0069  78.3885 0001115  72.7313 321.9147 12.62268705635416
GLOBALSTAR M092         
1 38043U 11080D   25262.52272403 -.00000108  00000+0 -21106-4 0  9994
2 38043  52.0076 168.7617 0000604  64.4930 106.6719 12.62265881633869
GLOBALSTAR M090         
1 38044U 11080E   25262.63386668 -.00000098  00000+0  34559-4 0  9999
2 38044  52.0120  71.9064 0000983  90.7849 346.1797 12.62262445635549
GLOBALSTAR M086         
1 38045U 11080F   25262.49175483 -.00000075  00000+0  16177-3 0  9995
2 38045  51.9893  72.7091 0001365 138.3255 257.1340 12.62277167635473
GLOBALSTAR M097         
1 39072U 13005A   25262.59039735 -.00000105  00000+0 -57221-5 0  9997
2 39072  52.0072 347.0583 0000727 109.0053 251.0892 12.62265602582737
GLOBALSTAR M093         
1 39073U 13005B   25262.48517276 -.00000083  00000+0  11546-3 0  9999
2 39073  52.0131 340.6233 0000929 108.4744 251.6224 12.62264415582678
GLOBALSTAR M094         
1 39074U 13005C   25262.40576308 -.00000100  00000+0  22981-4 0  9999
2 39074  51.9945 255.2500 0000562  91.2228 268.8703 12.62269955584271
GLOBALSTAR M096         
1 39075U 13005D   25262.57729936 -.00000074  00000+0  16804-3 0  9991
2 39075  52.0076 303.3175 0000650  99.7572 260.3369 12.62266924583216
GLOBALSTAR M078         
1 39076U 13005E   25262.55122347 -.00000104  00000+0  55763-6 0  9997
2 39076  51.9894  27.7762 0001277  58.5106 301.5885 12.62260132581836
GLOBALSTAR M095         
1 39077U 13005F   25262.49803016 -.00000111  00000+0 -40586-4 0  9994
2 39077  52.0104  25.1571 0001183  87.3457 272.7545 12.62259805581688
GLOBALSTAR M087         
1 52888U 22064A   25262.43267717 -.00000115  00000+0 -59849-4 0  9996
2 52888  51.9987 166.7557 0000845  72.4639 287.6320 12.62288540156948
